CUBEBUG-2 (LO-74)
1 39440U 13066AA  26204.36629569  .00002525  00000-0  23555-3 0  9993
2 39440  97.8915 153.5078 0055478 267.5794  91.9073 14.94006894682391
FUNCUBE-1 (AO-73)
1 39444U 13066AE  26204.51050628  .00007621  00000-0  46628-3 0  9996
2 39444  97.8300 176.7303 0038149  80.8155 279.7386 15.09909897685145
UWE-3
1 39446U 13066AG  26204.30668996  .00003059  00000-0  26352-3 0  9991
2 39446  97.8729 160.6343 0047856 196.8794 163.0837 14.97241976682988
UNISAT-6
1 40012U 14033C   26204.37061143  .00001973  00000-0  21533-3 0  9994
2 40012  97.7918 356.4577 0043655 310.2648  49.4755 14.88391794651543
DUCHIFAT-1
1 40021U 14033M   26204.12789155  .00177994  00000-0  12882-2 0  9990
2 40021  98.0412 268.5702 0003896 226.4566 133.6372 15.72917144661380
LILACSAT-2
1 40908U 15049K   26204.57095215  .00020606  00000-0  33605-3 0  9992
2 40908  97.4631 242.8176 0008628 117.1327 243.0807 15.52595911601395
CAS-2T & KS-1Q
1 41847U 16066G   26204.46154538  .00000639  00000-0  98274-4 0  9995
2 41847  98.3807 279.7826 0341786  19.7084 341.6950 14.44780560510036
FOX-1B (AO-91)
1 43017U 17073E   26204.51789104  .00008409  00000-0  36402-3 0  9991
2 43017  97.4662  70.9927 0148677 202.5578 156.9074 15.13146521470885
FUNCUBE-3 (EO-79)/QB50P1
1 40025U 14033R   26203.79923947  .00008602  00000-0  41700-3 0  9996
2 40025  98.0975 217.4558 0010565 102.9257 257.3156 15.18749882658434
FOX-1A (AO-85)
1 40967U 15058D   26204.30272102  .00003792  00000-0  33669-3 0  9997
2 40967  64.7741 166.7325 0133071  42.7370 318.3997 14.91129767118956
DIWATA-2B (PO-101)
1 43678U 18084H   26204.57958789  .00001830  00000-0  14994-3 0  9993
2 43678  98.1225  42.3836 0012275  58.3697 301.8722 15.00585830421676
ESHAIL-2
1 43700U 18090A   26204.54610483  .00000000  00000-0  00000-0 0  9997
2 43700   0.0186  49.6880 0002702 107.0586   6.9459  1.00273645 28049
ITASAT-1
1 43786U 18099AE  26204.57572127  .00006444  00000-0  30659-3 0  9999
2 43786  97.4011 255.3665 0011442 217.9737 142.0692 15.19457884418438
FOX-1CLIFF (AO-95)
1 43770U 18099N   26204.11741777  .00012936  00000-0  48430-3 0  9990
2 43770  97.4362 264.2441 0007956 208.6564 151.4239 15.27399464418700
JY1SAT (JO-97)
1 43803U 18099AX  26204.42449413  .00017809  00000-0  53040-3 0  9990
2 43803  97.4109 267.4075 0007346 133.9181 226.2670 15.34728198419183
UWE-4
1 43880U 18111E   26204.56181329  .00034517  00000-0  65420-3 0  9994
2 43880  97.5824 134.6875 0007593 165.1813 194.9661 15.48239728416403
CAS-6 (TO-108)
1 44881U 19093C   26204.59479546  .00000203  00000-0  28875-4 0  9999
2 44881  97.7513 275.9367 0012845 333.3636  26.6919 14.86567615356821
DOSAAF-85 (RS-44)
1 44909U 19096E   26204.59358230  .00000007  00000-0 -22705-4 0  9998
2 44909  82.5245 315.5155 0218350  59.4462 302.7988 12.79748902307004
SALSAT (TUBSAT 22)
1 46495U 20068K   26204.44213959  .00007378  00000-0  25456-3 0  9995
2 46495  97.8868 209.7289 0010091 164.5021 195.6529 15.30258663320903
CAMSAT XW-3 (CAS-9)
1 50466U 21131B   26204.63810711  .00000452  00000-0  15327-3 0  9992
2 50466  98.4981 296.8315 0004035   8.2020 351.9235 14.41387415240361
ROBUSTA 1F (MTCUBE-2)
1 53109U 22080E   26203.66940058 -.00000003  00000-0  00000-0 0  9995
2 53109  70.1381 285.9076 0009327 282.2706  77.6909  6.42583354 94343
UMKA-1 (RS40S)
1 57172U 23091G   26204.60592986  .00005446  00000-0  24697-3 0  9996
2 57172  97.5031 263.1676 0012173   0.7781 359.3471 15.21189567169549
CUBESX-HSE-3 (RS42S)
1 57178U 23091N   26204.56316580  .00013022  00000-0  42278-3 0  9995
2 57178  97.5073 270.6275 0008922 329.7570  30.3156 15.32039958169991
MONITOR-3 (RS58S)
1 57180U 23091Q   26204.60453113  .00010312  00000-0  37395-3 0  9990
2 57180  97.5064 268.3304 0010164 338.5754  21.5059 15.28494284169855
MONITOR-4 (RS57S)
1 57182U 23091S   26204.58154837  .00010737  00000-0  38818-3 0  9992
2 57182  97.5058 268.2804 0010149 339.0352  21.0470 15.28583152169852
MONITOR-2 (RS39S)
1 57184U 23091U   26204.60793861  .00004238  00000-0  20433-3 0  9996
2 57184  97.5053 262.6579 0010536 355.1304   4.9826 15.19209526169486
SVYATOBOR-1 (RS60S)
1 57187U 23091X   26204.56167356  .00008464  00000-0  32030-3 0  9999
2 57187  97.5070 268.5897 0007921 332.9779  27.1046 15.27166406169860
VIZARD-METEO (RS38S)
1 57189U 23091Z   26204.61571201  .00017138  00000-0  47394-3 0  9992
2 57189  97.5073 274.8554 0005171 302.2938  57.7805 15.37078712170280
UTMN-2 (RS27S)
1 57203U 23091AP  26204.56121607  .00012733  00000-0  40337-3 0  9990
2 57203  97.5068 272.3034 0006091 315.6787  44.3966 15.32853643170110
POLYTECH UNIVERSE-3 (RS46S)
1 57191U 23091AB  26204.56428224  .00004939  00000-0  23578-3 0  9998
2 57191  97.5028 262.1186 0015240   9.4996 350.6523 15.19423795169478
